FLOCK 1C-3              
1 40041U 14033AH  18018.71122117  .00000456  00000-0  54468-4 0  9996
2 40041  97.9201 296.2752 0012039 307.6200  52.3959 14.88993737194551
POLYITAN-1              
1 40042U 14033AJ  18020.83595317  .00000399  00000-0  49216-4 0  9990
2 40042  97.9168 296.5756 0013627 301.9050  58.0840 14.88286251194799
TIGRISAT                
1 40043U 14033AK  18020.60288973  .00000159  00000-0  31180-4 0  9998
2 40043  97.8295 263.1135 0059224 315.4097  44.2355 14.74087204192568
LEMUR-1                 
1 40044U 14033AL  18020.47403572  .00000148  00000-0  29762-4 0  9999
2 40044  97.8292 262.6685 0058403 317.1767  42.4900 14.73914491192822
AEROCUBE 6A             
1 40045U 14033AM  18020.63532664  .00000363  00000-0  60109-4 0  9992
2 40045  97.8441 264.9370 0057403 310.1332  49.4856 14.75043641192532
AEROCUBE 6B             
1 40046U 14033AN  18020.63561517  .00000351  00000-0  58468-4 0  9994
2 40046  97.8423 264.8391 0056400 309.5412  50.0820 14.75034005192535
UKUBE-1                 
1 40074U 14037F   18020.46387607  .00000222  00000-0  33951-4 0  9993
2 40074  98.3672 150.4704 0006024  76.7235 283.4657 14.83701784191396
BRITE-PL 2              
1 40119U 14049B   18020.36827893  .00000142  00000-0  23449-4 0  9993
2 40119  97.9255 110.0208 0018895 100.2277 260.1069 14.84242696185280
FIREBIRD 4              
1 40378U 15003C   18020.61707237  .00002092  00000-0  89889-4 0  9994
2 40378  99.1051 253.0704 0133248   1.5236 358.6371 15.16614524163949
GRIFEX                  
1 40379U 15003D   18020.44374161  .00001351  00000-0  63493-4 0  9992
2 40379  99.1087 249.7003 0139987  12.5334 347.9315 15.13879821163747
EXOCUBE                 
1 40380U 15003E   18020.25965610  .00000974  00000-0  48910-4 0  9995
2 40380  99.1137 247.7310 0144250  18.9152 341.7355 15.12177981163597
DEORBITSAIL             
1 40719U 15032E   18020.77476915  .00000399  00000-0  64738-4 0  9992
2 40719  97.9607 276.5567 0016702 158.6104 201.5808 14.76309205136427
TIANWANG 1C (TW-1C)     
1 40926U 15051B   18020.87048185  .00005955  00000-0  12070-3 0  9992
2 40926  97.2029  63.9872 0012503  94.7746 352.8478 15.46691339130520
TIANWANG 1B (TW-1B)     
1 40927U 15051C   18020.52636631  .00005885  00000-0  12418-3 0  9992
2 40927  97.2124  63.5565 0012414 106.6693  27.9779 15.45514777130395
TIANWANG 1A (TW-1A)     
1 40928U 15051D   18020.54910756  .00002619  00000-0  72453-4 0  9996
2 40928  97.2031  57.3924 0013582 128.7422   2.5100 15.37814251130089
LEMUR-2-JOEL            
1 40932U 15052C   18005.05034218  .00001043  00000-0  53969-4 0  9992
2 40932   6.0099 226.4616 0014640 240.2561 134.6642 14.77609559122910
LEMUR-2-CHRIS           
1 40933U 15052D   18006.98719622  .00000547  00000-0 -13558-4 0  9994
2 40933   6.0038 211.2288 0013693 273.1065  86.7607 14.77762957123216
LEMUR-2-JEROEN          
1 40934U 15052E   18006.10295953 -.00000362  00000-0 -13842-3 0  9996
2 40934   6.0000 223.9854 0011424 242.7843 117.1116 14.77099179122987
LEMUR-2-PETER           
1 40935U 15052F   18007.03243701  .00000398  00000-0 -33394-4 0  9997
2 40935   6.0006 219.4976 0010389 256.3104 103.5874 14.76881266123121
EXACTVIEW 9             
1 40936U 15052G   18018.31828626  .00000742  00000-0  14863-4 0  9998
2 40936   6.0079 142.3600 0011189  34.3618 325.7486 14.76340510124785
ATHENOXAT 1             
1 41168U 15077C   18020.50869411  .00001752  00000-0  59876-4 0  9999
2 41168  14.9884  20.8450 0012303 148.5500 288.6837 15.12390430115981
GALASSIA                
1 41170U 15077E   18020.48060411  .00001792  00000-0  61118-4 0  9998
2 41170  14.9901  16.2900 0013366 169.9198 190.1392 15.12806106116024
VELOX 2                 
1 41171U 15077F   18020.52480295  .00001485  00000-0  48530-4 0  9992
2 41171  14.9925  33.6382 0009115 117.1282 242.9969 15.10403882115874
AGGIESAT 4              
1 41313U 98067HP  18020.29826664  .00116665  16766-4  26028-3 0  9992
2 41313  51.6333 313.5063 0002005 146.0107 214.1030 15.97646940113313
HORYU-IV                
1 41340U 16012D   18020.61620096  .00000482  00000-0  30270-4 0  9993
2 41340  31.0041 165.8978 0013976  69.2797 290.9335 15.00863422105708
OUFTI-1                 
1 41458U 16025C   18020.71445292  .00000336  00000-0  22551-4 0  9992
2 41458  98.1559  75.5749 0169720 282.1762  76.0461 15.04161018 95264
E-ST@R-II               
1 41459U 16025D   18020.36421390  .00001574  00000-0  87324-4 0  9991
2 41459  98.1559  75.0965 0171360 283.7864  74.4352 15.03932212 95209
AAUSAT 4                
1 41460U 16025E   18020.87319660  .00001857  00000-0  10175-3 0  9998
2 41460  98.1515  75.9299 0162106 278.9503  79.3386 15.05187529 95325
DIWATA-1                
1 41463U 98067HT  18020.83641984  .00007752  00000-0  76258-4 0  9995
2 41463  51.6419   3.2843 0000296 151.3919 280.7532 15.67096829 98874
FLOCK 2E'-1             
1 41479U 98067HZ  18020.28271625  .00065252  00000-0  26015-3 0  9996
2 41479  51.6326 338.3180 0002210  73.1567 286.9679 15.85981940 96091
FLOCK 2E'-3             
1 41480U 98067JA  18020.27691481  .00050967  00000-0  22374-3 0  9994
2 41480  51.6256 338.9931 0001765  66.0122 294.1066 15.84073183 96076
FLOCK 2E-1              
1 41483U 98067JD  18020.41896515  .00034696  00000-0  19051-3 0  9997
2 41483  51.6349 343.1454 0001605  77.3907 282.7274 15.79416953 95892
FLOCK 2E-2              
1 41484U 98067JE  18020.96674757  .01738716  28645-2  11330-2 0  9993
2 41484  51.6239 328.5632 0007165 162.1189 197.9660 16.17239933 96136
FLOCK 2E-3              
1 41486U 98067JG  18020.41673981  .00037448  00000-0  18275-3 0  9995
2 41486  51.6302 343.0521 0001813 104.5972 255.5232 15.81955759 95914
FLOCK 2E-4              
1 41487U 98067JH  18020.34762176  .00149873  00000-0  55770-3 0  9990
2 41487  51.6285 341.8182 0005193 125.1884 234.9608 15.87049656 95925
FLOCK 2E-6              
1 41563U 98067JM  18020.31110955  .00314016  50298-4  75746-3 0  9990
2 41563  51.6288 343.0274 0004467 101.4536 258.6974 15.95880424 93970
FLOCK 2E-5              
1 41564U 98067JN  18020.47263418  .00024386  00000-0  15825-3 0  9993
2 41564  51.6291 348.7355 0001820   2.7188 357.3821 15.75853449 93909
FLOCK 2E-7              
1 41565U 98067JP  18020.30431110  .00050580  00000-0  21027-3 0  9998
2 41565  51.6265 336.8945 0000336 204.1597 155.9390 15.85218802 93943
FLOCK 2E'-5             
1 41567U 98067JR  18020.42703096  .00021241  00000-0  14768-3 0  9994
2 41567  51.6335 352.2450 0002193 255.1071 104.9686 15.74352387 93725
FLOCK 2E'-6             
1 41568U 98067JS  18020.44277298  .00034283  00000-0  18740-3 0  9991
2 41568  51.6293 344.6959 0000617 270.9238  89.1693 15.79522238 93852
FLOCK 2E'-8             
1 41569U 98067JT  18020.32214121  .00062893  00000-0  24417-3 0  9991
2 41569  51.6305 335.5458 0001710 105.9072 254.2121 15.86544426 93849
FLOCK 2E-10             
1 41572U 98067JW  18020.33437520  .00180175  00000-0  63834-3 0  9996
2 41572  51.6318 338.7132 0002913 161.9931 198.1177 15.87970561 93787
FLOCK 2E-12             
1 41573U 98067JX  18020.25449745  .00069637  00000-0  25698-3 0  9995
2 41573  51.6299 335.8390 0000471  96.6211 263.4847 15.87541002 93810
FLOCK 2E-11             
1 41574U 98067JY  18020.26736370  .00059675  00000-0  23080-3 0  9994
2 41574  51.6237 335.0432 0000726 321.7703  38.3250 15.86643479 93821
FLOCK 2E'-9             
1 41575U 98067JZ  18020.22930792  .00121392  16806-4  33855-3 0  9997
2 41575  51.6262 330.2255 0001865  83.4883 276.6336 15.93509395 93879
FLOCK 2E'-10            
1 41576U 98067KA  18020.29612134  .00202661  26605-4  58445-3 0  9991
2 41576  51.6288 333.8713 0001165 158.3053 201.8003 15.92661529 93733
FLOCK 2E'-11            
1 41577U 98067KB  18020.24102166  .00058218  00000-0  24226-3 0  9990
2 41577  51.6326 338.1076 0000324 202.4025 157.6965 15.85140397 93498
FLOCK 2E'-12            
1 41578U 98067KC  18020.22393906  .00158521  21079-4  38650-3 0  9990
2 41578  51.6217 330.9187 0003024 122.1137 238.0165 15.95886150 93584
FLOCK 2P-6              
1 41606U 16040H   18020.84337217  .00003295  00000-0  13944-3 0  9997
2 41606  97.4329  86.7333 0011251  39.4912 320.7143 15.23844300 87837
FLOCK 2P-11             
1 41608U 16040K   18020.85138319  .00002723  00000-0  11610-3 0  9995
2 41608  97.4324  86.6934 0011384  39.3665 320.8397 15.23738714 87777
FLOCK 2P-2              
1 41609U 16040L   18020.40386909  .00002042  00000-0  87607-4 0  9991
2 41609  97.4332  86.2573 0011288  40.4849 319.7226 15.23821303 87687
FLOCK 2P-9              
1 41610U 16040M   18020.61314486  .00003217  00000-0  13628-3 0  9993
2 41610  97.4328  86.4156 0011517  39.7523 320.4555 15.23826632 87592
FLOCK 2P-4              
1 41611U 16040N   18020.44551353  .00003053  00000-0  12951-3 0  9997
2 41611  97.4355  86.5232 0011761  48.8170 311.4080 15.23817010 87738
FLOCK 2P-10             
1 41612U 16040P   18020.48747152  .00002857  00000-0  12133-3 0  9999
2 41612  97.4360  86.6564 0011608  48.6753 311.5481 15.23830809 87747
FLOCK 2P-8              
1 41613U 16040Q   18020.11154821  .00003146  00000-0  13339-3 0  9996
2 41613  97.4356  86.2112 0011751  49.0748 311.1504 15.23807951 87683
FLOCK 2P-12             
1 41614U 16040R   18020.59722410  .00001593  00000-0  69065-4 0  9996
2 41614  97.4368  86.8596 0011460  47.9401 312.2809 15.23788494 87768
FLOCK 2P-7              
1 41615U 16040S   18020.10739027  .00000793  00000-0  36051-4 0  9996
2 41615  97.4357  86.1969 0011791  49.8534 310.3734 15.23631561 87688
FLOCK 2P-5              
1 41616U 16040T   18020.60837192  .00003268  00000-0  13852-3 0  9997
2 41616  97.4366  86.8445 0011396  47.6364 312.5836 15.23792028 87743
FLOCK 2P-1              
1 41617U 16040U   18020.72563140  .00002559  00000-0  10906-3 0  9999
2 41617  97.4369  87.0001 0011441  47.5363 312.6840 15.23812630 87789
